[{"OBJECT_NAME":"ONEWEB-0171","OBJECT_ID":"2021-025AE","EPOCH":"2026-03-02T03:23:11.127264","MEAN_MOTION":13.13472662,"ECCENTRICITY":0.0001799,"INCLINATION":87.9036,"RA_OF_ASC_NODE":341.5226,"ARG_OF_PERICENTER":83.3476,"MEAN_ANOMALY":276.7857,"EPHEMERIS_TYPE":0,"CLASSIFICATION_TYPE":"U","NORAD_CAT_ID":48070,"ELEMENT_SET_NO":999,"REV_AT_EPOCH":23956,"BSTAR":0.00079614,"MEAN_MOTION_DOT":3.03e-6,"MEAN_MOTION_DDOT":0},{"OBJECT_NAME":"ONEWEB-0172","OBJECT_ID":"2021-025AF","EPOCH":"2026-03-02T01:04:15.372768","MEAN_MOTION":13.1346933,"ECCENTRICITY":0.00019,"INCLINATION":87.9039,"RA_OF_ASC_NODE":341.529,"ARG_OF_PERICENTER":82.8525,"MEAN_ANOMALY":277.282,"EPHEMERIS_TYPE":0,"CLASSIFICATION_TYPE":"U","NORAD_CAT_ID":48071,"ELEMENT_SET_NO":999,"REV_AT_EPOCH":24044,"BSTAR":-0.00040561,"MEAN_MOTION_DOT":-1.35e-6,"MEAN_MOTION_DDOT":0},{"OBJECT_NAME":"ONEWEB-0174","OBJECT_ID":"2021-025AG","EPOCH":"2026-03-02T00:37:26.209920","MEAN_MOTION":13.13468521,"ECCENTRICITY":0.0001873,"INCLINATION":87.904,"RA_OF_ASC_NODE":341.5339,"ARG_OF_PERICENTER":74.8165,"MEAN_ANOMALY":285.3171,"EPHEMERIS_TYPE":0,"CLASSIFICATION_TYPE":"U","NORAD_CAT_ID":48072,"ELEMENT_SET_NO":999,"REV_AT_EPOCH":23976,"BSTAR":-0.00052651,"MEAN_MOTION_DOT":-1.8e-6,"MEAN_MOTION_DDOT":0},{"OBJECT_NAME":"ONEWEB-0175","OBJECT_ID":"2021-025AH","EPOCH":"2026-03-02T03:11:01.137984","MEAN_MOTION":13.1346943,"ECCENTRICITY":0.0001792,"INCLINATION":87.9046,"RA_OF_ASC_NODE":341.4877,"ARG_OF_PERICENTER":90.2777,"MEAN_ANOMALY":269.8557,"EPHEMERIS_TYPE":0,"CLASSIFICATION_TYPE":"U","NORAD_CAT_ID":48073,"ELEMENT_SET_NO":999,"REV_AT_EPOCH":23943,"BSTAR":0.00023723,"MEAN_MOTION_DOT":9.9e-7,"MEAN_MOTION_DDOT":0},{"OBJECT_NAME":"ONEWEB-0177","OBJECT_ID":"2021-025AJ","EPOCH":"2026-03-02T03:28:04.746432","MEAN_MOTION":13.13469494,"ECCENTRICITY":0.0001983,"INCLINATION":87.905,"RA_OF_ASC_NODE":341.5065,"ARG_OF_PERICENTER":76.987,"MEAN_ANOMALY":283.148,"EPHEMERIS_TYPE":0,"CLASSIFICATION_TYPE":"U","NORAD_CAT_ID":48074,"ELEMENT_SET_NO":999,"REV_AT_EPOCH":23962,"BSTAR":0.00099188,"MEAN_MOTION_DOT":3.75e-6,"MEAN_MOTION_DDOT":0},{"OBJECT_NAME":"ONEWEB-0178","OBJECT_ID":"2021-025AK","EPOCH":"2026-03-02T03:55:05.866176","MEAN_MOTION":13.13468873,"ECCENTRICITY":0.0001921,"INCLINATION":87.9031,"RA_OF_ASC_NODE":341.5314,"ARG_OF_PERICENTER":85.4836,"MEAN_ANOMALY":274.6513,"EPHEMERIS_TYPE":0,"CLASSIFICATION_TYPE":"U","NORAD_CAT_ID":48075,"ELEMENT_SET_NO":999,"REV_AT_EPOCH":23967,"BSTAR":0.00057946,"MEAN_MOTION_DOT":2.24e-6,"MEAN_MOTION_DDOT":0},{"OBJECT_NAME":"ONEWEB-0108","OBJECT_ID":"2021-025AL","EPOCH":"2026-03-02T01:06:41.073408","MEAN_MOTION":13.13470354,"ECCENTRICITY":0.000166,"INCLINATION":87.9047,"RA_OF_ASC_NODE":341.5141,"ARG_OF_PERICENTER":72.2667,"MEAN_ANOMALY":287.8643,"EPHEMERIS_TYPE":0,"CLASSIFICATION_TYPE":"U","NORAD_CAT_ID":48076,"ELEMENT_SET_NO":999,"REV_AT_EPOCH":23958,"BSTAR":-5.4168e-5,"MEAN_MOTION_DOT":-7.0e-8,"MEAN_MOTION_DDOT":0},{"OBJECT_NAME":"ONEWEB-0169","OBJECT_ID":"2021-025AM","EPOCH":"2026-03-02T03:42:41.928480","MEAN_MOTION":13.13468944,"ECCENTRICITY":0.0001661,"INCLINATION":87.904,"RA_OF_ASC_NODE":341.509,"ARG_OF_PERICENTER":73.4081,"MEAN_ANOMALY":286.7231,"EPHEMERIS_TYPE":0,"CLASSIFICATION_TYPE":"U","NORAD_CAT_ID":48077,"ELEMENT_SET_NO":999,"REV_AT_EPOCH":23825,"BSTAR":0.00086124,"MEAN_MOTION_DOT":3.27e-6,"MEAN_MOTION_DDOT":0},{"OBJECT_NAME":"ONEWEB-0176","OBJECT_ID":"2021-031A","EPOCH":"2026-03-02T03:46:37.562016","MEAN_MOTION":13.14501279,"ECCENTRICITY":0.0001714,"INCLINATION":87.9001,"RA_OF_ASC_NODE":311.0526,"ARG_OF_PERICENTER":82.8154,"MEAN_ANOMALY":277.317,"EPHEMERIS_TYPE":0,"CLASSIFICATION_TYPE":"U","NORAD_CAT_ID":48210,"ELEMENT_SET_NO":999,"REV_AT_EPOCH":23425,"BSTAR":0.0002764,"MEAN_MOTION_DOT":1.15e-6,"MEAN_MOTION_DDOT":0},{"OBJECT_NAME":"ONEWEB-0184","OBJECT_ID":"2021-031B","EPOCH":"2026-03-02T03:07:48.362304","MEAN_MOTION":13.14501946,"ECCENTRICITY":0.0002034,"INCLINATION":87.901,"RA_OF_ASC_NODE":311.0476,"ARG_OF_PERICENTER":106.15,"MEAN_ANOMALY":253.9854,"EPHEMERIS_TYPE":0,"CLASSIFICATION_TYPE":"U","NORAD_CAT_ID":48211,"ELEMENT_SET_NO":999,"REV_AT_EPOCH":23422,"BSTAR":0.00058843,"MEAN_MOTION_DOT":2.31e-6,"MEAN_MOTION_DDOT":0},{"OBJECT_NAME":"ONEWEB-0179","OBJECT_ID":"2021-031C","EPOCH":"2026-03-02T02:25:33.712032","MEAN_MOTION":13.14502058,"ECCENTRICITY":0.0001873,"INCLINATION":87.9004,"RA_OF_ASC_NODE":311.0565,"ARG_OF_PERICENTER":74.6611,"MEAN_ANOMALY":285.4726,"EPHEMERIS_TYPE":0,"CLASSIFICATION_TYPE":"U","NORAD_CAT_ID":48212,"ELEMENT_SET_NO":999,"REV_AT_EPOCH":23426,"BSTAR":-0.00042592,"MEAN_MOTION_DOT":-1.45e-6,"MEAN_MOTION_DDOT":0},{"OBJECT_NAME":"ONEWEB-0180","OBJECT_ID":"2021-031D","EPOCH":"2026-03-02T03:12:22.487904","MEAN_MOTION":13.14501611,"ECCENTRICITY":0.000198,"INCLINATION":87.9004,"RA_OF_ASC_NODE":311.051,"ARG_OF_PERICENTER":83.1845,"MEAN_ANOMALY":276.9509,"EPHEMERIS_TYPE":0,"CLASSIFICATION_TYPE":"U","NORAD_CAT_ID":48213,"ELEMENT_SET_NO":999,"REV_AT_EPOCH":23415,"BSTAR":0.00053652,"MEAN_MOTION_DOT":2.12e-6,"MEAN_MOTION_DDOT":0},{"OBJECT_NAME":"ONEWEB-0218","OBJECT_ID":"2021-031E","EPOCH":"2026-03-02T03:44:20.904000","MEAN_MOTION":13.14501613,"ECCENTRICITY":0.000228,"INCLINATION":87.9004,"RA_OF_ASC_NODE":311.0459,"ARG_OF_PERICENTER":100.4575,"MEAN_ANOMALY":259.6811,"EPHEMERIS_TYPE":0,"CLASSIFICATION_TYPE":"U","NORAD_CAT_ID":48214,"ELEMENT_SET_NO":999,"REV_AT_EPOCH":23431,"BSTAR":0.00029337,"MEAN_MOTION_DOT":1.22e-6,"MEAN_MOTION_DDOT":0},{"OBJECT_NAME":"ONEWEB-0209","OBJECT_ID":"2021-031F","EPOCH":"2026-03-02T03:28:21.260928","MEAN_MOTION":13.14501584,"ECCENTRICITY":0.000186,"INCLINATION":87.8993,"RA_OF_ASC_NODE":311.0758,"ARG_OF_PERICENTER":77.4711,"MEAN_ANOMALY":282.6626,"EPHEMERIS_TYPE":0,"CLASSIFICATION_TYPE":"U","NORAD_CAT_ID":48215,"ELEMENT_SET_NO":999,"REV_AT_EPOCH":23431,"BSTAR":0.00085054,"MEAN_MOTION_DOT":3.28e-6,"MEAN_MOTION_DDOT":0},{"OBJECT_NAME":"ONEWEB-0198","OBJECT_ID":"2021-031G","EPOCH":"2026-03-02T03:05:43.247328","MEAN_MOTION":13.14502164,"ECCENTRICITY":0.0002072,"INCLINATION":87.8996,"RA_OF_ASC_NODE":311.0778,"ARG_OF_PERICENTER":85.7777,"MEAN_ANOMALY":274.359,"EPHEMERIS_TYPE":0,"CLASSIFICATION_TYPE":"U","NORAD_CAT_ID":48216,"ELEMENT_SET_NO":999,"REV_AT_EPOCH":23442,"BSTAR":0.00052557,"MEAN_MOTION_DOT":2.08e-6,"MEAN_MOTION_DDOT":0},{"OBJECT_NAME":"ONEWEB-0189","OBJECT_ID":"2021-031H","EPOCH":"2026-03-02T03:23:47.454144","MEAN_MOTION":13.14501864,"ECCENTRICITY":0.0001983,"INCLINATION":87.9,"RA_OF_ASC_NODE":311.052,"ARG_OF_PERICENTER":86.0539,"MEAN_ANOMALY":274.0817,"EPHEMERIS_TYPE":0,"CLASSIFICATION_TYPE":"U","NORAD_CAT_ID":48217,"ELEMENT_SET_NO":999,"REV_AT_EPOCH":23416,"BSTAR":0.00080018,"MEAN_MOTION_DOT":3.09e-6,"MEAN_MOTION_DDOT":0},{"OBJECT_NAME":"ONEWEB-0196","OBJECT_ID":"2021-031J","EPOCH":"2026-03-02T02:51:49.249728","MEAN_MOTION":13.14502019,"ECCENTRICITY":0.0001834,"INCLINATION":87.8999,"RA_OF_ASC_NODE":311.0669,"ARG_OF_PERICENTER":81.2619,"MEAN_ANOMALY":278.8719,"EPHEMERIS_TYPE":0,"CLASSIFICATION_TYPE":"U","NORAD_CAT_ID":48218,"ELEMENT_SET_NO":999,"REV_AT_EPOCH":23416,"BSTAR":2.3572e-6,"MEAN_MOTION_DOT":1.4e-7,"MEAN_MOTION_DDOT":0}]
