ONEWEB-0171             
1 48070U 21025AE  26061.14110101  .00000303  00000+0  79614-3 0  9998
2 48070  87.9036 341.5226 0001799  83.3476 276.7857 13.13472662239566
ONEWEB-0172             
1 48071U 21025AF  26061.04462237 -.00000135  00000+0 -40561-3 0  9992
2 48071  87.9039 341.5290 0001900  82.8525 277.2820 13.13469330240447
ONEWEB-0174             
1 48072U 21025AG  26061.02599780 -.00000180  00000+0 -52651-3 0  9998
2 48072  87.9040 341.5339 0001873  74.8165 285.3171 13.13468521239767
ONEWEB-0175             
1 48073U 21025AH  26061.13265206  .00000099  00000+0  23723-3 0  9999
2 48073  87.9046 341.4877 0001792  90.2777 269.8557 13.13469430239430
ONEWEB-0177             
1 48074U 21025AJ  26061.14449938  .00000375  00000+0  99188-3 0  9992
2 48074  87.9050 341.5065 0001983  76.9870 283.1480 13.13469494239628
ONEWEB-0178             
1 48075U 21025AK  26061.16326234  .00000224  00000+0  57946-3 0  9997
2 48075  87.9031 341.5314 0001921  85.4836 274.6513 13.13468873239671
ONEWEB-0108             
1 48076U 21025AL  26061.04630872 -.00000007  00000+0 -54168-4 0  9996
2 48076  87.9047 341.5141 0001660  72.2667 287.8643 13.13470354239580
ONEWEB-0169             
1 48077U 21025AM  26061.15465195  .00000327  00000+0  86124-3 0  9992
2 48077  87.9040 341.5090 0001661  73.4081 286.7231 13.13468944238257
ONEWEB-0176             
1 48210U 21031A   26061.15737919  .00000115  00000+0  27640-3 0  9997
2 48210  87.9001 311.0526 0001714  82.8154 277.3170 13.14501279234257
ONEWEB-0184             
1 48211U 21031B   26061.13042086  .00000231  00000+0  58843-3 0  9998
2 48211  87.9010 311.0476 0002034 106.1500 253.9854 13.14501946234220
ONEWEB-0179             
1 48212U 21031C   26061.10108463 -.00000145  00000+0 -42592-3 0  9998
2 48212  87.9004 311.0565 0001873  74.6611 285.4726 13.14502058234262
ONEWEB-0180             
1 48213U 21031D   26061.13359361  .00000212  00000+0  53652-3 0  9999
2 48213  87.9004 311.0510 0001980  83.1845 276.9509 13.14501611234152
ONEWEB-0218             
1 48214U 21031E   26061.15579750  .00000122  00000+0  29337-3 0  9991
2 48214  87.9004 311.0459 0002280 100.4575 259.6811 13.14501613234316
ONEWEB-0209             
1 48215U 21031F   26061.14469052  .00000328  00000+0  85054-3 0  9990
2 48215  87.8993 311.0758 0001860  77.4711 282.6626 13.14501584234310
ONEWEB-0198             
1 48216U 21031G   26061.12897277  .00000208  00000+0  52557-3 0  9992
2 48216  87.8996 311.0778 0002072  85.7777 274.3590 13.14502164234421
ONEWEB-0189             
1 48217U 21031H   26061.14152146  .00000309  00000+0  80018-3 0  9999
2 48217  87.9000 311.0520 0001983  86.0539 274.0817 13.14501864234160
ONEWEB-0196             
1 48218U 21031J   26061.11932002  .00000014  00000+0  23572-5 0  9991
2 48218  87.8999 311.0669 0001834  81.2619 278.8719 13.14502019234168
